{
  "type": "FeatureCollection",
  "features": [
    {
      "type": "Feature",
      "properties": {
        "norad_id": 29914,
        "name": "FENGYUN 1C DEB",
        "group": "fengyun-1c-debris",
        "lat": -66.019181821768,
        "lon": 34.098300383279465,
        "alt_km": 916.4549062869837,
        "timestamp": "2025-12-10T23:33:13.090496+00:00",
        "meta_object_name": "FENGYUN 1C DEB",
        "meta_object_id": "1999-025HL",
        "meta_epoch": "2025-12-10T08:33:11.270880",
        "meta_mean_motion": 14.03131576,
        "meta_eccentricity": 0.0036502,
        "meta_inclination": 98.845,
        "meta_ra_of_asc_node": 13.0008,
        "meta_arg_of_pericenter": 121.5729,
        "meta_mean_anomaly": 255.3907,
        "meta_ephemeris_type": 0,
        "meta_classification_type": "U",
        "meta_norad_cat_id": 29914,
        "meta_element_set_no": 999,
        "meta_rev_at_epoch": 96753,
        "meta_bstar": 0.00016451243,
        "meta_mean_motion_dot": 2.15e-06,
        "meta_mean_motion_ddot": 0,
        "tle_line1": "1 29914U 99025HL  25344.35638045  .00000215  00000+0  16451-3 0  9999",
        "tle_line2": "2 29914  98.8450  13.0008 0036502 121.5729 255.3907 14.03131576967538"
      },
      "geometry": {
        "type": "Point",
        "coordinates": [
          34.098300383279465,
          -66.019181821768
        ]
      }
    },
    {
      "type": "Feature",
      "properties": {
        "norad_id": 29916,
        "name": "FENGYUN 1C DEB",
        "group": "fengyun-1c-debris",
        "lat": -42.06189779815212,
        "lon": 175.93642478194636,
        "alt_km": 897.5634567979268,
        "timestamp": "2025-12-10T23:33:13.090505+00:00",
        "meta_object_name": "FENGYUN 1C DEB",
        "meta_object_id": "1999-025HN",
        "meta_epoch": "2025-12-09T00:42:55.660032",
        "meta_mean_motion": 13.56977253,
        "meta_eccentricity": 0.0271162,
        "meta_inclination": 99.1951,
        "meta_ra_of_asc_node": 2.5151,
        "meta_arg_of_pericenter": 268.0226,
        "meta_mean_anomaly": 147.836,
        "meta_ephemeris_type": 0,
        "meta_classification_type": "U",
        "meta_norad_cat_id": 29916,
        "meta_element_set_no": 999,
        "meta_rev_at_epoch": 93402,
        "meta_bstar": 0.000951251,
        "meta_mean_motion_dot": 8.15e-06,
        "meta_mean_motion_ddot": 0,
        "tle_line1": "1 29916U 99025HN  25343.02981088  .00000815  00000+0  95125-3 0  9993",
        "tle_line2": "2 29916  99.1951   2.5151 0271162 268.0226 147.8360 13.56977253934027"
      },
      "geometry": {
        "type": "Point",
        "coordinates": [
          175.93642478194636,
          -42.06189779815212
        ]
      }
    },
    {
      "type": "Feature",
      "properties": {
        "norad_id": 29917,
        "name": "FENGYUN 1C DEB",
        "group": "fengyun-1c-debris",
        "lat": -52.09359180077865,
        "lon": 15.174602742009595,
        "alt_km": 1040.9832833011742,
        "timestamp": "2025-12-10T23:33:13.090514+00:00",
        "meta_object_name": "FENGYUN 1C DEB",
        "meta_object_id": "1999-025HP",
        "meta_epoch": "2025-12-10T09:15:45.351648",
        "meta_mean_motion": 13.70402558,
        "meta_eccentricity": 0.02227217,
        "meta_inclination": 98.8765,
        "meta_ra_of_asc_node": 206.2019,
        "meta_arg_of_pericenter": 130.605,
        "meta_mean_anomaly": 43.7279,
        "meta_ephemeris_type": 0,
        "meta_classification_type": "U",
        "meta_norad_cat_id": 29917,
        "meta_element_set_no": 999,
        "meta_rev_at_epoch": 94098,
        "meta_bstar": 0.0014421618,
        "meta_mean_motion_dot": 1.481e-05,
        "meta_mean_motion_ddot": 0,
        "tle_line1": "1 29917U 99025HP  25344.38594157  .00001481  00000+0  14422-2 0  9991",
        "tle_line2": "2 29917  98.8765 206.2019 0222721 130.6050  43.7279 13.70402558940981"
      },
      "geometry": {
        "type": "Point",
        "coordinates": [
          15.174602742009595,
          -52.09359180077865
        ]
      }
    },
    {
      "type": "Feature",
      "properties": {
        "norad_id": 29918,
        "name": "FENGYUN 1C DEB",
        "group": "fengyun-1c-debris",
        "lat": 18.885799633520772,
        "lon": 64.32047259040631,
        "alt_km": 775.0004147993977,
        "timestamp": "2025-12-10T23:33:13.090523+00:00",
        "meta_object_name": "FENGYUN 1C DEB",
        "meta_object_id": "1999-025HQ",
        "meta_epoch": "2025-12-10T11:50:24.505152",
        "meta_mean_motion": 14.33570276,
        "meta_eccentricity": 0.00127904,
        "meta_inclination": 98.8541,
        "meta_ra_of_asc_node": 66.8781,
        "meta_arg_of_pericenter": 323.5941,
        "meta_mean_anomaly": 58.1217,
        "meta_ephemeris_type": 0,
        "meta_classification_type": "U",
        "meta_norad_cat_id": 29918,
        "meta_element_set_no": 999,
        "meta_rev_at_epoch": 97762,
        "meta_bstar": 0.0022402394,
        "meta_mean_motion_dot": 6.165e-05,
        "meta_mean_motion_ddot": 0,
        "tle_line1": "1 29918U 99025HQ  25344.49333918  .00006165  00000+0  22402-2 0  9991",
        "tle_line2": "2 29918  98.8541  66.8781 0012790 323.5941  58.1217 14.33570276977621"
      },
      "geometry": {
        "type": "Point",
        "coordinates": [
          64.32047259040631,
          18.885799633520772
        ]
      }
    },
    {
      "type": "Feature",
      "properties": {
        "norad_id": 29919,
        "name": "FENGYUN 1C DEB",
        "group": "fengyun-1c-debris",
        "lat": -81.11256306545805,
        "lon": -147.88269600947206,
        "alt_km": 927.4098451138789,
        "timestamp": "2025-12-10T23:33:13.090533+00:00",
        "meta_object_name": "FENGYUN 1C DEB",
        "meta_object_id": "1999-025HR",
        "meta_epoch": "2025-12-10T10:22:59.746944",
        "meta_mean_motion": 13.85121758,
        "meta_eccentricity": 0.01374761,
        "meta_inclination": 98.479,
        "meta_ra_of_asc_node": 139.079,
        "meta_arg_of_pericenter": 350.1391,
        "meta_mean_anomaly": 69.1643,
        "meta_ephemeris_type": 0,
        "meta_classification_type": "U",
        "meta_norad_cat_id": 29919,
        "meta_element_set_no": 999,
        "meta_rev_at_epoch": 95503,
        "meta_bstar": 0.00024936614,
        "meta_mean_motion_dot": 2.66e-06,
        "meta_mean_motion_ddot": 0,
        "tle_line1": "1 29919U 99025HR  25344.43263596  .00000266  00000+0  24937-3 0  9992",
        "tle_line2": "2 29919  98.4790 139.0790 0137476 350.1391  69.1643 13.85121758955030"
      },
      "geometry": {
        "type": "Point",
        "coordinates": [
          -147.88269600947206,
          -81.11256306545805
        ]
      }
    },
    {
      "type": "Feature",
      "properties": {
        "norad_id": 29920,
        "name": "FENGYUN 1C DEB",
        "group": "fengyun-1c-debris",
        "lat": 33.85483857482607,
        "lon": -166.07084445129058,
        "alt_km": 906.9049812254398,
        "timestamp": "2025-12-10T23:33:13.090542+00:00",
        "meta_object_name": "FENGYUN 1C DEB",
        "meta_object_id": "1999-025HS",
        "meta_epoch": "2025-12-10T13:07:34.045248",
        "meta_mean_motion": 14.03644456,
        "meta_eccentricity": 0.01254467,
        "meta_inclination": 98.3915,
        "meta_ra_of_asc_node": 199.2107,
        "meta_arg_of_pericenter": 287.0603,
        "meta_mean_anomaly": 71.6855,
        "meta_ephemeris_type": 0,
        "meta_classification_type": "U",
        "meta_norad_cat_id": 29920,
        "meta_element_set_no": 999,
        "meta_rev_at_epoch": 96257,
        "meta_bstar": 0.0018725698,
        "meta_mean_motion_dot": 3.114e-05,
        "meta_mean_motion_ddot": 0,
        "tle_line1": "1 29920U 99025HS  25344.54692182  .00003114  00000+0  18726-2 0  9996",
        "tle_line2": "2 29920  98.3915 199.2107 0125446 287.0603  71.6855 14.03644456962574"
      },
      "geometry": {
        "type": "Point",
        "coordinates": [
          -166.07084445129058,
          33.85483857482607
        ]
      }
    },
    {
      "type": "Feature",
      "properties": {
        "norad_id": 29921,
        "name": "FENGYUN 1C DEB",
        "group": "fengyun-1c-debris",
        "lat": -29.380466144446636,
        "lon": 166.1530059922031,
        "alt_km": 900.503992146625,
        "timestamp": "2025-12-10T23:33:13.090551+00:00",
        "meta_object_name": "FENGYUN 1C DEB",
        "meta_object_id": "1999-025HT",
        "meta_epoch": "2025-12-10T12:55:22.587168",
        "meta_mean_motion": 14.06639278,
        "meta_eccentricity": 0.00464441,
        "meta_inclination": 98.7869,
        "meta_ra_of_asc_node": 350.7187,
        "meta_arg_of_pericenter": 75.7965,
        "meta_mean_anomaly": 51.6968,
        "meta_ephemeris_type": 0,
        "meta_classification_type": "U",
        "meta_norad_cat_id": 29921,
        "meta_element_set_no": 999,
        "meta_rev_at_epoch": 96845,
        "meta_bstar": 0.00063209578,
        "meta_mean_motion_dot": 1.016e-05,
        "meta_mean_motion_ddot": 0,
        "tle_line1": "1 29921U 99025HT  25344.53845587  .00001016  00000+0  63210-3 0  9993",
        "tle_line2": "2 29921  98.7869 350.7187 0046444  75.7965  51.6968 14.06639278968457"
      },
      "geometry": {
        "type": "Point",
        "coordinates": [
          166.1530059922031,
          -29.380466144446636
        ]
      }
    }
  ]
}